[{"OBJECT_NAME":"STARLINK-30235","OBJECT_ID":"2023-096E","EPOCH":"2026-03-09T22:00:01.999584","MEAN_MOTION":15.1666611,"ECCENTRICITY":0.00012493,"INCLINATION":42.9991,"RA_OF_ASC_NODE":221.1883,"ARG_OF_PERICENTER":288.6797,"MEAN_ANOMALY":312.541,"EPHEMERIS_TYPE":0,"CLASSIFICATION_TYPE":"U","NORAD_CAT_ID":57294,"ELEMENT_SET_NO":999,"REV_AT_EPOCH":578,"BSTAR":0.0049850557,"MEAN_MOTION_DOT":0.00100537,"MEAN_MOTION_DDOT":0},{"OBJECT_NAME":"DCS-1","OBJECT_ID":"2025-313R","EPOCH":"2026-03-09T22:34:45.868224","MEAN_MOTION":15.21562848,"ECCENTRICITY":0.00145796,"INCLINATION":97.4021,"RA_OF_ASC_NODE":145.2125,"ARG_OF_PERICENTER":357.8679,"MEAN_ANOMALY":2.2492,"EPHEMERIS_TYPE":0,"CLASSIFICATION_TYPE":"U","NORAD_CAT_ID":67263,"ELEMENT_SET_NO":999,"REV_AT_EPOCH":1085,"BSTAR":0.0005215367,"MEAN_MOTION_DOT":0.00011729,"MEAN_MOTION_DDOT":0}]
